{"type": "FeatureCollection", "features": [ {"type": "Feature", "properties": {"norad_id": 30510, "name": "FENGYUN 1C DEB", "group": "fengyun-1c-debris", "lat": 32.453555109816534, "lon": -17.951072112937904, "alt_km": 901.9928925904724, "timestamp": "2025-12-02T07:10:09.392242+00:00", "meta": {"OBJECT_NAME": "FENGYUN 1C DEB", "OBJECT_ID": "1999-025AHY", "EPOCH": "2025-12-01T14:35:51.154944", "MEAN_MOTION": 14.12762749, "ECCENTRICITY": 0.00785623, "INCLINATION": 99.2456, "RA_OF_ASC_NODE": 347.282, "ARG_OF_PERICENTER": 197.2948, "MEAN_ANOMALY": 286.1477, "EPHEMERIS_TYPE": 0, "CLASSIFICATION_TYPE": "U", "NORAD_CAT_ID": 30510, "ELEMENT_SET_NO": 999, "REV_AT_EPOCH": 96417, "BSTAR": 0.0013296709, "MEAN_MOTION_DOT": 2.495e-05, "MEAN_MOTION_DDOT": 0}, "tle": {"line1": "1 30510U 99025AHY 25335.60823096  .00002495  00000+0  13297-2 0  9999", "line2": "2 30510  99.2456 347.2820 0078562 197.2948 286.1477 14.12762749964175"}}, "geometry": {"type": "Point", "coordinates": [-17.951072112937904, 32.453555109816534]}}, {"type": "Feature", "properties": {"norad_id": 30514, "name": "FENGYUN 1C DEB", "group": "fengyun-1c-debris", "lat": 81.47189463566693, "lon": -99.09022761714053, "alt_km": 665.264808494082, "timestamp": "2025-12-02T07:10:09.392252+00:00", "meta": {"OBJECT_NAME": "FENGYUN 1C DEB", "OBJECT_ID": "1999-025AJC", "EPOCH": "2025-12-01T12:19:49.791936", "MEAN_MOTION": 14.34296657, "ECCENTRICITY": 0.01745708, "INCLINATION": 98.4148, "RA_OF_ASC_NODE": 359.3378, "ARG_OF_PERICENTER": 127.3328, "MEAN_ANOMALY": 234.3908, "EPHEMERIS_TYPE": 0, "CLASSIFICATION_TYPE": "U", "NORAD_CAT_ID": 30514, "ELEMENT_SET_NO": 999, "REV_AT_EPOCH": 98064, "BSTAR": 0.00051011639, "MEAN_MOTION_DOT": 1.655e-05, "MEAN_MOTION_DDOT": 0}, "tle": {"line1": "1 30514U 99025AJC 25335.51377074  .00001655  00000+0  51012-3 0  9998", "line2": "2 30514  98.4148 359.3378 0174570 127.3328 234.3908 14.34296657980640"}}, "geometry": {"type": "Point", "coordinates": [-99.09022761714053, 81.47189463566693]}}, {"type": "Feature", "properties": {"norad_id": 30515, "name": "FENGYUN 1C DEB", "group": "fengyun-1c-debris", "lat": 26.321110011545393, "lon": -150.5349866353037, "alt_km": 912.3699340156099, "timestamp": "2025-12-02T07:10:09.392262+00:00", "meta": {"OBJECT_NAME": "FENGYUN 1C DEB", "OBJECT_ID": "1999-025AJD", "EPOCH": "2025-12-01T15:27:23.341824", "MEAN_MOTION": 13.63732002, "ECCENTRICITY": 0.04967358, "INCLINATION": 98.5097, "RA_OF_ASC_NODE": 213.1366, "ARG_OF_PERICENTER": 104.009, "MEAN_ANOMALY": 315.7126, "EPHEMERIS_TYPE": 0, "CLASSIFICATION_TYPE": "U", "NORAD_CAT_ID": 30515, "ELEMENT_SET_NO": 999, "REV_AT_EPOCH": 93179, "BSTAR": 0.00090579457, "MEAN_MOTION_DOT": 1.632e-05, "MEAN_MOTION_DDOT": 0}, "tle": {"line1": "1 30515U 99025AJD 25335.64402016  .00001632  00000+0  90579-3 0  9994", "line2": "2 30515  98.5097 213.1366 0496735 104.0090 315.7126 13.63732002931795"}}, "geometry": {"type": "Point", "coordinates": [-150.5349866353037, 26.321110011545393]}}, {"type": "Feature", "properties": {"norad_id": 30516, "name": "FENGYUN 1C DEB", "group": "fengyun-1c-debris", "lat": 31.901266825378094, "lon": -94.49477365271919, "alt_km": 758.9063097680191, "timestamp": "2025-12-02T07:10:09.392272+00:00", "meta": {"OBJECT_NAME": "FENGYUN 1C DEB", "OBJECT_ID": "1999-025AJE", "EPOCH": "2025-12-01T05:37:47.735328", "MEAN_MOTION": 14.41082627, "ECCENTRICITY": 0.0008301, "INCLINATION": 98.8575, "RA_OF_ASC_NODE": 78.8329, "ARG_OF_PERICENTER": 328.3244, "MEAN_ANOMALY": 61.7284, "EPHEMERIS_TYPE": 0, "CLASSIFICATION_TYPE": "U", "NORAD_CAT_ID": 30516, "ELEMENT_SET_NO": 999, "REV_AT_EPOCH": 97549, "BSTAR": 0.0026514, "MEAN_MOTION_DOT": 8.502e-05, "MEAN_MOTION_DDOT": 0}, "tle": {"line1": "1 30516U 99025AJE 25335.23458027  .00008502  00000+0  26514-2 0  9993", "line2": "2 30516  98.8575  78.8329 0008301 328.3244  61.7284 14.41082627975491"}}, "geometry": {"type": "Point", "coordinates": [-94.49477365271919, 31.901266825378094]}}, {"type": "Feature", "properties": {"norad_id": 30520, "name": "FENGYUN 1C DEB", "group": "fengyun-1c-debris", "lat": 67.48675935346795, "lon": 125.87209230643273, "alt_km": 499.11324857225827, "timestamp": "2025-12-02T07:10:09.392282+00:00", "meta": {"OBJECT_NAME": "FENGYUN 1C DEB", "OBJECT_ID": "1999-025AJJ", "EPOCH": "2025-12-01T18:10:08.045184", "MEAN_MOTION": 15.13313518, "ECCENTRICITY": 0.007108, "INCLINATION": 98.7182, "RA_OF_ASC_NODE": 146.9827, "ARG_OF_PERICENTER": 136.9187, "MEAN_ANOMALY": 223.7635, "EPHEMERIS_TYPE": 0, "CLASSIFICATION_TYPE": "U", "NORAD_CAT_ID": 30520, "ELEMENT_SET_NO": 999, "REV_AT_EPOCH": 875, "BSTAR": 0.0013333, "MEAN_MOTION_DOT": 0.00025255, "MEAN_MOTION_DDOT": 0}, "tle": {"line1": "1 30520U 99025AJJ 25335.75703756  .00025255  00000+0  13333-2 0  9996", "line2": "2 30520  98.7182 146.9827 0071080 136.9187 223.7635 15.13313518  8754"}}, "geometry": {"type": "Point", "coordinates": [125.87209230643273, 67.48675935346795]}}, {"type": "Feature", "properties": {"norad_id": 30521, "name": "FENGYUN 1C DEB", "group": "fengyun-1c-debris", "lat": 21.79375668277827, "lon": -65.68381319862318, "alt_km": 742.7326918129957, "timestamp": "2025-12-02T07:10:09.392292+00:00", "meta": {"OBJECT_NAME": "FENGYUN 1C DEB", "OBJECT_ID": "1999-025AJK", "EPOCH": "2025-12-01T07:22:39.667584", "MEAN_MOTION": 14.58109016, "ECCENTRICITY": 0.01356723, "INCLINATION": 98.9874, "RA_OF_ASC_NODE": 109.6172, "ARG_OF_PERICENTER": 278.6001, "MEAN_ANOMALY": 79.9844, "EPHEMERIS_TYPE": 0, "CLASSIFICATION_TYPE": "U", "NORAD_CAT_ID": 30521, "ELEMENT_SET_NO": 999, "REV_AT_EPOCH": 99415, "BSTAR": 0.00084284698, "MEAN_MOTION_DOT": 4.346e-05, "MEAN_MOTION_DDOT": 0}, "tle": {"line1": "1 30521U 99025AJK 25335.30740356  .00004346  00000+0  84285-3 0  9998", "line2": "2 30521  98.9874 109.6172 0135672 278.6001  79.9844 14.58109016994156"}}, "geometry": {"type": "Point", "coordinates": [-65.68381319862318, 21.79375668277827]}}, {"type": "Feature", "properties": {"norad_id": 30523, "name": "FENGYUN 1C DEB", "group": "fengyun-1c-debris", "lat": 54.45884835037572, "lon": 146.97853367338215, "alt_km": 623.8893720935121, "timestamp": "2025-12-02T07:10:09.392302+00:00", "meta": {"OBJECT_NAME": "FENGYUN 1C DEB", "OBJECT_ID": "1999-025AJM", "EPOCH": "2025-12-01T15:43:19.037280", "MEAN_MOTION": 14.27909938, "ECCENTRICITY": 0.0243798, "INCLINATION": 98.465, "RA_OF_ASC_NODE": 314.3217, "ARG_OF_PERICENTER": 141.0343, "MEAN_ANOMALY": 277.5255, "EPHEMERIS_TYPE": 0, "CLASSIFICATION_TYPE": "U", "NORAD_CAT_ID": 30523, "ELEMENT_SET_NO": 999, "REV_AT_EPOCH": 97942, "BSTAR": 0.00014867, "MEAN_MOTION_DOT": 4.58e-06, "MEAN_MOTION_DDOT": 0}, "tle": {"line1": "1 30523U 99025AJM 25335.65508145  .00000458  00000+0  14867-3 0  9995", "line2": "2 30523  98.4650 314.3217 0243798 141.0343 277.5255 14.27909938979423"}}, "geometry": {"type": "Point", "coordinates": [146.97853367338215, 54.45884835037572]}}, {"type": "Feature", "properties": {"norad_id": 30524, "name": "FENGYUN 1C DEB", "group": "fengyun-1c-debris", "lat": -6.709070813141929, "lon": 149.46078343868146, "alt_km": 883.7167055300451, "timestamp": "2025-12-02T07:10:09.392312+00:00", "meta": {"OBJECT_NAME": "FENGYUN 1C DEB", "OBJECT_ID": "1999-025AJN", "EPOCH": "2025-12-01T10:29:58.910496", "MEAN_MOTION": 13.91916568, "ECCENTRICITY": 0.02081351, "INCLINATION": 99.3093, "RA_OF_ASC_NODE": 147.4903, "ARG_OF_PERICENTER": 280.4789, "MEAN_ANOMALY": 77.2979, "EPHEMERIS_TYPE": 0, "CLASSIFICATION_TYPE": "U", "NORAD_CAT_ID": 30524, "ELEMENT_SET_NO": 999, "REV_AT_EPOCH": 93728, "BSTAR": 0.0055041088, "MEAN_MOTION_DOT": 8.336e-05, "MEAN_MOTION_DDOT": 0}, "tle": {"line1": "1 30524U 99025AJN 25335.43748739  .00008336  00000+0  55041-2 0  9998", "line2": "2 30524  99.3093 147.4903 0208135 280.4789  77.2979 13.91916568937283"}}, "geometry": {"type": "Point", "coordinates": [149.46078343868146, -6.709070813141929]}}, {"type": "Feature", "properties": {"norad_id": 30525, "name": "FENGYUN 1C DEB", "group": "fengyun-1c-debris", "lat": 49.97422430688957, "lon": -147.7228416650625, "alt_km": 970.9857869461512, "timestamp": "2025-12-02T07:10:09.392322+00:00", "meta": {"OBJECT_NAME": "FENGYUN 1C DEB", "OBJECT_ID": "1999-025AJP", "EPOCH": "2025-11-29T15:18:01.303776", "MEAN_MOTION": 13.58546207, "ECCENTRICITY": 0.02944783, "INCLINATION": 98.6024, "RA_OF_ASC_NODE": 220.3231, "ARG_OF_PERICENTER": 343.5489, "MEAN_ANOMALY": 15.6252, "EPHEMERIS_TYPE": 0, "CLASSIFICATION_TYPE": "U", "NORAD_CAT_ID": 30525, "ELEMENT_SET_NO": 999, "REV_AT_EPOCH": 92939, "BSTAR": 0.0016497634, "MEAN_MOTION_DOT": 1.559e-05, "MEAN_MOTION_DDOT": 0}, "tle": {"line1": "1 30525U 99025AJP 25333.63751509  .00001559  00000+0  16498-2 0  9991", "line2": "2 30525  98.6024 220.3231 0294478 343.5489  15.6252 13.58546207929393"}}, "geometry": {"type": "Point", "coordinates": [-147.7228416650625, 49.97422430688957]}}, {"type": "Feature", "properties": {"norad_id": 30526, "name": "FENGYUN 1C DEB", "group": "fengyun-1c-debris", "lat": 4.349411304853591, "lon": 58.24652085269186, "alt_km": 1004.5925989497055, "timestamp": "2025-12-02T07:10:09.392331+00:00", "meta": {"OBJECT_NAME": "FENGYUN 1C DEB", "OBJECT_ID": "1999-025AJQ", "EPOCH": "2025-12-01T04:27:55.104480", "MEAN_MOTION": 13.4986822, "ECCENTRICITY": 0.03053311, "INCLINATION": 99.5479, "RA_OF_ASC_NODE": 57.9122, "ARG_OF_PERICENTER": 293.64, "MEAN_ANOMALY": 63.296, "EPHEMERIS_TYPE": 0, "CLASSIFICATION_TYPE": "U", "NORAD_CAT_ID": 30526, "ELEMENT_SET_NO": 999, "REV_AT_EPOCH": 92502, "BSTAR": 0.0015608843, "MEAN_MOTION_DOT": 1.278e-05, "MEAN_MOTION_DDOT": 0}, "tle": {"line1": "1 30526U 99025AJQ 25335.18605445  .00001278  00000+0  15609-2 0  9992", "line2": "2 30526  99.5479  57.9122 0305331 293.6400  63.2960 13.49868220925023"}}, "geometry": {"type": "Point", "coordinates": [58.24652085269186, 4.349411304853591]}}]}